APRIZESAT 2             
1 28366U 04025A   26200.98742915  .00000095  00000+0  42451-4 0  9994
2 28366  98.1048   5.1158 0106245 150.4722 210.2525 14.38048933156356
SAUDICOMSAT 1           
1 28369U 04025D   26201.01411691  .00000128  00000+0  40744-4 0  9996
2 28369  98.5779 212.0328 0030878 283.5654  76.2104 14.55495394168905
SAUDICOMSAT 2           
1 28370U 04025E   26200.97215974  .00000092  00000+0  35844-4 0  9993
2 28370  98.6643 214.1455 0055931 159.2670 201.0810 14.49995741164852
APRIZESAT 1             
1 28372U 04025G   26201.03210383  .00000101  00000+0  36784-4 0  9997
2 28372  98.6310 212.6523 0045610  56.3603 304.1930 14.51793593166674
NANOSAT-1               
1 28493U 04049B   26201.09014405  .00000476  00000+0  69925-4 0  9998
2 28493  98.2317 338.5640 0004161 169.0607 191.0695 14.80216002160314
SAUDICOMSAT 7           
1 31119U 07012C   26200.87172126  .00000262  00000+0  56092-4 0  9994
2 31119  98.3802 175.6764 0057030  93.9673 266.8052 14.66139390 27229
SAUDICOMSAT 6           
1 31121U 07012E   26200.86009125  .00000157  00000+0  40093-4 0  9991
2 31121  98.4121 168.9897 0070725 224.3685 135.1835 14.62586541 24963
SAUDICOMSAT 5           
1 31124U 07012H   26201.20824995  .00000345  00000+0  68164-4 0  9991
2 31124  98.3514 176.7608 0047921  23.3041 337.0321 14.68195963 28443
SAUDICOMSAT 3           
1 31125U 07012J   26200.90734252  .00000353  00000+0  66191-4 0  9991
2 31125  98.3168 176.9997 0037980 309.9836  49.8037 14.70753612 29639
SAUDICOMSAT 4           
1 31127U 07012L   26200.88104980  .00000195  00000+0  45568-4 0  9998
2 31127  98.4008 174.1226 0063864 155.1714 205.2584 14.64537679 26072
APRIZESAT 4             
1 35684U 09041D   26201.16334194  .00000339  00000+0  47162-4 0  9990
2 35684  98.1399 277.1396 0042538 213.0561 146.7993 14.83917858916258
APRIZESAT 3             
1 35686U 09041F   26201.26787205  .00000130  00000+0  17104-4 0  9990
2 35686  98.2107 356.0859 0060687 318.9183  40.7475 14.96316648921325
S-NET D                 
1 43186U 18014G   26200.72083125  .00002151  00000+0  11249-3 0  9992
2 43186  97.5323 105.3092 0006222 265.0958  94.9565 15.16940248463696
S-NET B                 
1 43187U 18014H   26201.19468399  .00002419  00000+0  12614-3 0  9999
2 43187  97.5328 105.7677 0006888 257.3194 102.7270 15.16912532463763
S-NET A                 
1 43188U 18014J   26200.98338461  .00002224  00000+0  11612-3 0  9993
2 43188  97.5338 105.7728 0006750 258.9742 101.0732 15.16949915463733
S-NET C                 
1 43189U 18014K   26200.60504808  .00002382  00000+0  12431-3 0  9998
2 43189  97.5354 105.4763 0008164 251.7007 108.3338 15.16900273462223
SALSAT                  
1 46495U 20068K   26200.97640307  .00004107  00000+0  14329-3 0  9993
2 46495  97.8865 206.0496 0009725 176.0322 184.0997 15.30211220320374
OOV-CUBE (TUBSAT-30)    
1 60240U 24128F   26201.25711982  .00001037  00000+0  91433-4 0  9999
2 60240  61.9942 110.2494 0040455 141.1428 219.2584 15.02886018111086
LPNTSAT-001 (IOD-1)     
1 68408U 26065A   26199.90234535  .00001249  00000+0  63360-4 0  9990
2 68408  97.3975  79.7370 0014685 251.9820 107.9814 15.18678997 17078
CHUANG XIN 26 (CX-26)   
1 69972U 26158A   26201.10585263 -.00000111  00000+0  20763-4 0  9991
2 69972  49.9832 259.6942 0004941 316.1867  43.8654 14.25124167  1405
